#cP2016  2  5  0  0  0.00000000      97 d+D   IGb08 FIT AIUB
## 1882 432000.00000000   900.00000000 57423 0.0000000000000
+   73   G01G02G03G04G05G06G07G08G09G10G11G12G13G14G15G16G17
+        G18G19G20G21G22G23G24G25G26G27G28G29G30G31R01R02R03
+        R04R05R06R07R08R09R10R11R12R13R14R15R16R17R18R19R20
+        R21R22R23R24R26E11E12E14E19E22E24E26E30C06C07C08C09
+        C10C11C12C14J01  0  0  0  0  0  0  0  0  0  0  0  0
++         4  4  4 10  5  4  4  4  4  6  5  4  4  4  4  4  4
++         4  4  4  4  5  4  4  4  4  4  4  4  4  4  4  4  4
++         4  4  4  4  5  4  4  4  4  4  4  4  4  4  4  5  5
++         5  4  4  5  5  5  4  4  5  5  4  4  4  4  4  4  4
++         4  4  4  4  4  0  0  0  0  0  0  0  0  0  0  0  0
%c M  cc GPS ccc cccc cccc cccc cccc ccccc ccccc ccccc ccccc
%c cc cc ccc ccc cccc cccc cccc cccc ccccc ccccc ccccc ccccc
%f  1.2500000  1.025000000  0.00000000000  0.000000000000000
%f  0.0000000  0.000000000  0.00000000000  0.000000000000000
%i    0    0    0    0      0      0      0      0         0
%i    0    0    0    0      0      0      0      0         0
/* CODE MGEX ORBIT SOLUTION                                 
/* FOR DOY 16036                                            
/* INCLUDING ESTIMATED SATELLITE CLOCKS                     
/* PCV:IGS08      OL/AL:FES2004  NONE     YN ORB:CoN CLK:CoN
*  2016  2  5 12 45  0.00000000
PG01  -3709.724114  17140.994038 -19954.870745     10.948999
PG02  21582.645113 -14689.714405   3841.767026    599.524970
PG03   6147.586216  18975.810179 -17533.802030    -20.776228
PG04 -22192.330617  -4301.286367  13953.026818   -249.955662
PG05  13694.781771  -8988.034160  20870.420256   -148.844448
PG06  24379.664530  -4663.904676  -9431.586914    140.656530
PG07  13169.209597   9897.346314  21043.109847    470.906907
PG08  -6182.977627  24990.278031   6562.864863    -22.721027
PG09   9047.981736  20251.594516  14583.400817     64.537846
PG10 -23673.246142  -9390.657141  -7627.019156     46.410950
PG11  -5667.446788  22240.749684 -13870.743123   -630.817709
PG12  -1900.011354 -17723.957704 -19879.758925    365.973325
PG13  12415.163755 -19756.494233  12635.793441   -183.271977
PG14 -14426.223144  -4698.096015 -21560.881699      4.893165
PG15   2443.277811 -26096.048874   2807.724784   -295.727837
PG16 -14216.472563   6693.155124  21396.903105    -42.321709
PG17  13998.112016   5836.612793 -21498.235865   -200.176937
PG18 -20440.397801 -16766.074527   4297.493307    480.388945
PG19  15326.623224   -881.625145 -21954.560037   -524.747084
PG20  -3294.338224 -18164.749121  18917.623360    390.714488
PG21 -16824.690166  -7762.088515  19864.031339   -508.920925
PG22 -18909.707867   4180.803602 -18036.378236    401.680549
PG23   1662.401667  25863.599675   4798.400867   -158.534238
PG24   6623.954771 -18068.156908 -18271.143715    -11.873671
PG25 -14578.208897 -19176.809505 -11499.692945   -111.717001
PG26 -21147.276505   -554.571971  16088.197418   -241.710814
PG27 -11700.812834  18189.986975  15294.206382     59.967941
PG28  22493.121797  12147.370164  -6662.377938    500.304025
PG29  -5760.205408 -22685.646942  12611.691509    653.573949
PG30  21497.294197   3053.401519  15344.830042     92.895976
PG31 -25044.557302   5751.383225  -7319.022292    283.982498
PR01  11046.911202  21706.108040  -7615.318309   -146.151439
PR02  17199.131416  15453.855946  10759.613882    174.971299
PR03  12904.478094     32.645571  22027.358783     61.656238
PR04    793.097529 -15559.689486  20207.888777    156.075755
PR05 -11500.161605 -21692.105449   6891.477043     -0.306997
PR06 -17433.988731 -14752.049474 -11412.464272     83.229286
PR07 -12797.814066    116.741597 -22043.979157     -5.977529
PR08  -1163.088462  15230.014340 -20389.622448    -27.056794
PR09 -22301.176525  -3641.742487 -11964.406016     26.005074
PR10 -24587.081614   4280.023671   5081.629815     13.356260
PR11 -12870.440532  10198.804912  19552.429353     23.231223
PR12   6987.361164   9918.217377  22434.347614     34.818010
PR13  22406.148024   3324.604442  11710.715497     10.826695
PR14  24236.741487  -4891.658058  -6425.493277    277.765192
PR15  13959.185152  -9725.876166 -18950.489946     63.002826
PR16  -7842.205322  -9753.046450 -22245.037147     30.422631
PR17 -22172.071081  -4213.665523 -11814.807945     72.123550
PR18  11698.165233 -22618.826582  -1983.632467     87.724751
PR19   1745.682837 -20004.321942  15735.338900   -147.506531
PR20  -9275.226776  -5303.139322  23174.419778   -217.922624
PR21 -14518.515213  11677.476606  17441.120799     49.762884
PR22 -11491.072540  22641.686271   1538.653335    190.641371
PR23  -1203.209305  19859.211179 -15965.251066    -77.795368
PR24   8846.134773   6288.882493 -23100.814689   -133.453459
PR26  -9977.681795  -3963.152151  23153.926005 999999.999999
PE11  19035.596728 -20652.662701  -9353.880362     43.281734
PE12  19537.266481  -4019.695796 -21861.154557   -646.611291
PE14   7166.534257 -30089.294268  -3544.484433   3909.756400
PE19  16298.094261  24598.630493   2247.513499    -13.289594
PE22  -9835.703976 -15356.717335  23310.937390    748.573925
PE24  23529.582295  -9870.382799 -14984.449254   2553.687460
PE26  -6716.763602  26753.034556 -10752.487551   3872.519200
PE30 -29342.842260  -1898.431985  -3490.123571   2523.095740
PC06  -8762.867823  26052.998066 -31787.808028   -149.754401
PC07 -22814.323322  23425.417043  26552.713135    238.681647
PC08 -17809.835030  38169.236877   3542.850152   -109.220768
PC09   5323.338763  35063.070741 -22559.645168    702.033490
PC10  -5872.100967  25517.235850  33071.668820    268.556365
PC11  15530.845021 -16675.748129 -15996.434936    306.250304
PC12  15027.129220   4408.100541 -23059.514646    396.109023
PC14  16169.466864  -5947.931446  21969.605154    359.551020
PJ01 -28482.605608  16458.643011 -21745.631105     -5.550824
EOF
